CELESTIS-02 & TAURUS R/B
1 25160U 98007D   24193.40386800  .00000124  00000+0  11220-3 0  9991
2 25160 108.0043 347.9640 0063959 259.4233 169.6145 14.22015080370167
